STARLINK-3107
1 19171C 21082AT  21326.13042716 -.00670321  00000-0 -11652-1 0  3264
2 19171  70.0000 293.3519 0003452 272.7501  35.6006 15.51315541    13
